[{"OBJECT_NAME":"STARLINK-36198","OBJECT_ID":"2025-303E","EPOCH":"2026-03-09T16:00:03.000096","MEAN_MOTION":15.27564344,"ECCENTRICITY":0.0001517,"INCLINATION":43.0009,"RA_OF_ASC_NODE":311.2223,"ARG_OF_PERICENTER":270.5874,"MEAN_ANOMALY":221.4743,"EPHEMERIS_TYPE":0,"CLASSIFICATION_TYPE":"U","NORAD_CAT_ID":67167,"ELEMENT_SET_NO":999,"REV_AT_EPOCH":581,"BSTAR":0.0014632686,"MEAN_MOTION_DOT":0.00040204,"MEAN_MOTION_DDOT":0},{"OBJECT_NAME":"CZ-6A DEB","OBJECT_ID":"2023-168D","EPOCH":"2026-03-09T19:03:52.964928","MEAN_MOTION":15.28240044,"ECCENTRICITY":0.00013417,"INCLINATION":97.7802,"RA_OF_ASC_NODE":98.3362,"ARG_OF_PERICENTER":174.0661,"MEAN_ANOMALY":186.0594,"EPHEMERIS_TYPE":0,"CLASSIFICATION_TYPE":"U","NORAD_CAT_ID":58202,"ELEMENT_SET_NO":999,"REV_AT_EPOCH":12922,"BSTAR":0.0014474773,"MEAN_MOTION_DOT":0.00039923,"MEAN_MOTION_DDOT":0}]
